ONEWEB-0208             
1 48243U 21031AK  25344.46397114 -.00000102  00000+0 -31067-3 0  9995
2 48243  87.8990 327.3034 0001656  80.0509 280.0808 13.14504298223512
ONEWEB-0200             
1 48244U 21031AL  25344.50361051  .00000087  00000+0  19910-3 0  9995
2 48244  87.8990 327.2851 0001669  83.6651 276.4669 13.14501075223446
ONEWEB-0217             
1 48245U 21031AM  25344.44335785 -.00000168  00000+0 -48841-3 0  9991
2 48245  87.9000 327.2915 0001676  76.2136 283.9180 13.14503717223384
ONEWEB-0211             
1 48767U 21045A   25344.58122587  .00000024  00000+0  28500-4 0  9994
2 48767  87.9000 296.7528 0001966  66.1942 293.9395 13.16137081219639
ONEWEB-0223             
1 48768U 21045B   25344.57110024  .00000149  00000+0  36132-3 0  9994
2 48768  87.8997 296.8187 0002175  70.5311 289.6054 13.15548488219605
ONEWEB-0230             
1 48769U 21045C   25344.61863109  .00000174  00000+0  42700-3 0  9995
2 48769  87.8987 296.8392 0001835  84.0197 276.1143 13.15549579219878
ONEWEB-0237             
1 48770U 21045D   25344.60754026  .00000009  00000+0 -98912-5 0  9999
2 48770  87.8990 296.8413 0002079  76.3123 283.8239 13.15549119219592
ONEWEB-0235             
1 48771U 21045E   25344.43007018 -.00000056  00000+0 -18326-3 0  9995
2 48771  87.8997 296.8475 0002233  71.7416 288.3958 13.15549037219568
ONEWEB-0242             
1 48772U 21045F   25344.57585060  .00000122  00000+0  28966-3 0  9992
2 48772  87.9001 296.8120 0002006  79.6853 280.4503 13.15550139219624
ONEWEB-0241             
1 48773U 21045G   25344.56315480  .00000198  00000+0  49099-3 0  9992
2 48773  87.8989 296.8524 0001952  66.4987 293.6348 13.15549053219534
ONEWEB-0243             
1 48774U 21045H   25344.59486262 -.00000054  00000+0 -17804-3 0  9995
2 48774  87.8993 296.8553 0002218  77.3837 282.7541 13.15548934219567
ONEWEB-0222             
1 48775U 21045J   25344.57821731  .00000077  00000+0  16984-3 0  9999
2 48775  87.8999 296.8119 0001932  75.1438 284.9906 13.15547379219603
ONEWEB-0244             
1 48776U 21045K   25344.37619926 -.00000002  00000+0 -39456-4 0  9999
2 48776  87.9005 296.8392 0001970  77.4322 282.7029 13.15549238220144
ONEWEB-0247             
1 48777U 21045L   25344.60120410 -.00000061  00000+0 -19671-3 0  9992
2 48777  87.8986 296.8514 0002753  72.3487 287.7944 13.15548879219615
ONEWEB-0245             
1 48778U 21045M   25344.59644942 -.00000075  00000+0 -23415-3 0  9998
2 48778  87.8988 296.8168 0001809  72.3913 287.7415 13.15548949219585
ONEWEB-0229             
1 48779U 21045N   25344.59169395 -.00000076  00000+0 -23611-3 0  9992
2 48779  87.8985 296.8163 0001965  80.1814 279.9538 13.15548596219619
ONEWEB-0228             
1 48780U 21045P   25344.39693122  .00000161  00000+0  39259-3 0  9990
2 48780  87.8997 296.8391 0001908  77.4619 282.6725 13.15547078219507
ONEWEB-0232             
1 48781U 21045Q   25344.59962425 -.00000007  00000+0 -52898-4 0  9994
2 48781  87.9007 296.7908 0001868  78.9028 281.2312 13.15548603219859
ONEWEB-0231             
1 48782U 21045R   25344.42532533  .00000027  00000+0  38011-4 0  9991
2 48782  87.8988 296.8684 0002077  76.0641 284.0720 13.15548572219525
ONEWEB-0234             
1 48783U 21045S   25344.38715445  .00000090  00000+0  20415-3 0  9990
2 48783  87.8992 296.8495 0001074  62.1988 297.9251 13.15548477219657
ONEWEB-0238             
1 48784U 21045T   25344.38740940  .00000082  00000+0  18367-3 0  9993
2 48784  87.8987 296.8431 0001507  75.7760 284.3538 13.15550772219559
ONEWEB-0240             
1 48785U 21045U   25344.40868008  .00000185  00000+0  45806-3 0  9995
2 48785  87.9004 296.8338 0001879  67.9265 292.2065 13.15549834219585
ONEWEB-0246             
1 48786U 21045V   25344.40313354  .00000214  00000+0  53395-3 0  9990
2 48786  87.9000 296.8454 0001991  80.9675 279.1681 13.15549857219455
ONEWEB-0210             
1 48787U 21045W   25344.37778308 -.00000033  00000+0 -12236-3 0  9991
2 48787  87.8996 296.8492 0002509  80.5165 279.6249 13.15549335219497
ONEWEB-0214             
1 48788U 21045X   25344.61466589  .00000112  00000+0  26425-3 0  9995
2 48788  87.9007 296.7930 0002227  84.0101 276.1283 13.15547295219497
ONEWEB-0221             
1 48789U 21045Y   25344.62180254  .00000178  00000+0  43811-3 0  9999
2 48789  87.8996 296.8066 0001963  74.9536 285.1811 13.15549058219587
ONEWEB-0213             
1 48790U 21045Z   25344.61070012  .00000106  00000+0  24745-3 0  9996
2 48790  87.8985 296.8167 0002098  76.3251 283.8113 13.15551242219644
ONEWEB-0212             
1 48791U 21045AA  25344.58771654 -.00000025  00000+0 -10165-3 0  9996
2 48791  87.8997 296.8114 0001762  78.4722 281.6606 13.15551207219636
ONEWEB-0227             
1 48792U 21045AB  25344.58694193 -.00000034  00000+0 -12373-3 0  9992
2 48792  87.8987 296.8217 0001856  76.2611 283.8726 13.15549711219585
ONEWEB-0226             
1 48793U 21045AC  25344.58058841 -.00001024  00000+0 -27541-2 0  9999
2 48793  87.8986 296.8322 0002274  78.7213 281.4173 13.15552993219555
ONEWEB-0224             
1 48794U 21045AD  25344.62021478  .00000227  00000+0  56777-3 0  9997
2 48794  87.8988 296.8593 0001781  49.2899 310.8386 13.15550126219484
ONEWEB-0233             
1 48795U 21045AE  25344.39665455  .00000162  00000+0  39648-3 0  9997
2 48795  87.8988 296.9145 0001966  71.1350 288.9993 13.15549490219470
ONEWEB-0190             
1 48796U 21045AF  25344.61229718  .00000134  00000+0  32211-3 0  9999
2 48796  87.8987 296.8332 0002495  69.7209 290.4189 13.15548795219574
ONEWEB-0236             
1 48797U 21045AG  25344.40154787  .00000269  00000+0  68084-3 0  9996
2 48797  87.8986 296.8866 0001656  78.9524 281.1793 13.15549704219430
ONEWEB-0248             
1 48798U 21045AH  25344.56633279  .00000137  00000+0  33101-3 0  9998
2 48798  87.9000 296.8173 0002072  62.8156 297.3185 13.15550425219612
ONEWEB-0225             
1 48799U 21045AJ  25344.58851882  .00000015  00000+0  58287-5 0  9992
2 48799  87.8989 296.8370 0002357  70.7162 289.4223 13.15550144219622
ONEWEB-0215             
1 48800U 21045AK  25344.40630269  .00000181  00000+0  44772-3 0  9996
2 48800  87.9006 296.8340 0002338  66.2664 293.8712 13.15549899219479
ONEWEB-0216             
1 48801U 21045AL  25344.56792896  .00000184  00000+0  45462-3 0  9999
2 48801  87.8990 296.8328 0001986  82.7364 277.3993 13.15549433219501
ONEWEB-0239             
1 48802U 21045AM  25344.42055493  .00000042  00000+0  78646-4 0  9994
2 48802  87.8989 296.8768 0002223  58.6533 301.4815 13.15550513219528
ONEWEB-0249             
1 48967U 21060A   25344.50364354  .00000040  00000+0  69924-4 0  9998
2 48967  87.9042 266.3496 0001807  71.4819 288.6509 13.16595371214789
ONEWEB-0250             
1 48968U 21060B   25344.48632102  .00000115  00000+0  23151-3 0  9999
2 48968  87.9040 264.7264 0001422  39.2663 320.8576 13.25820300215210
ONEWEB-0252             
1 48970U 21060D   25344.53530280  .00000096  00000+0  21633-3 0  9993
2 48970  87.9041 266.3367 0001910  79.1364 280.9982 13.16592963214834
ONEWEB-0253             
1 48971U 21060E   25344.52421761  .00000069  00000+0  14682-3 0  9992
2 48971  87.9042 266.3435 0001896  70.5425 289.5911 13.16596706214766
ONEWEB-0254             
1 48972U 21060F   25344.53371309  .00000106  00000+0  24418-3 0  9996
2 48972  87.9051 266.3330 0001952  64.7056 295.4277 13.16597349214764
ONEWEB-0255             
1 48973U 21060G   25344.34372118 -.00000030  00000+0 -11103-3 0  9990
2 48973  87.9039 266.3868 0001860  68.4393 291.6936 13.16595323214816
ONEWEB-0256             
1 48974U 21060H   25344.21787127  .00000151  00000+0  36172-3 0  9992
2 48974  87.9035 266.4204 0001736  78.8268 281.3058 13.16594479214762
ONEWEB-0257             
1 48975U 21060J   25344.55430563  .00000174  00000+0  42022-3 0  9995
2 48975  87.9046 266.3315 0001893  72.6251 287.5087 13.16595886214768
ONEWEB-0258             
1 48976U 21060K   25344.32790167  .00000076  00000+0  16399-3 0  9999
2 48976  87.9040 266.3920 0001636  72.4551 287.6759 13.16595409214747
ONEWEB-0259             
1 48977U 21060L   25344.54955709  .00000124  00000+0  28952-3 0  9991
2 48977  87.9047 266.3417 0001802  69.2484 290.8840 13.16595282214803
ONEWEB-0260             
1 48978U 21060M   25344.54085849  .00000065  00000+0  13585-3 0  9991
2 48978  87.9036 266.3570 0001930  87.9138 272.2213 13.16594149214783
ONEWEB-0261             
1 48979U 21060N   25344.28277457 -.00000005  00000+0 -47522-4 0  9996
2 48979  87.9035 266.4108 0002112  70.9584 289.1776 13.16593004214804
ONEWEB-0262             
1 48980U 21060P   25344.49097566  .00000080  00000+0  17683-3 0  9997
2 48980  87.9044 266.3426 0001707  63.6027 296.5279 13.16595645214799
ONEWEB-0263             
1 48981U 21060Q   25344.52264027 -.00000002  00000+0 -39658-4 0  9993
2 48981  87.9039 266.3508 0002096  68.0303 292.1050 13.16594853214769
ONEWEB-0264             
1 48982U 21060R   25344.48384345  .00000060  00000+0  12223-3 0  9995
2 48982  87.9035 266.3624 0001963  77.2771 282.8579 13.16593242214761
ONEWEB-0266             
1 48984U 21060T   25344.50522700  .00000050  00000+0  96856-4 0  9993
2 48984  87.9047 266.3437 0001566  69.6732 290.4567 13.16595752214758
ONEWEB-0267             
1 48985U 21060U   25344.21230604  .00000036  00000+0  61110-4 0  9990
2 48985  87.9042 266.4012 0001967  73.0156 287.1190 13.16597138214720
ONEWEB-0268             
1 48986U 21060V   25344.48464413  .00000123  00000+0  28879-3 0  9998
2 48986  87.9045 266.3554 0001731  75.1702 284.9621 13.16595733215020
ONEWEB-0269             
1 48987U 21060W   25344.54163321  .00000112  00000+0  25908-3 0  9998
2 48987  87.9035 266.3662 0001671  81.0370 279.0951 13.16596602214802
ONEWEB-0270             
1 48988U 21060X   25344.48305701  .00000074  00000+0  16064-3 0  9992
2 48988  87.9045 266.3575 0001955  63.0986 297.0344 13.16596588214837
